[{"OBJECT_NAME":"ONEWEB-0524","OBJECT_ID":"2022-138AF","EPOCH":"2026-03-03T17:13:10.902720","MEAN_MOTION":13.20780207,"ECCENTRICITY":0.0002634,"INCLINATION":87.9174,"RA_OF_ASC_NODE":295.4976,"ARG_OF_PERICENTER":83.171,"MEAN_ANOMALY":276.9723,"EPHEMERIS_TYPE":0,"CLASSIFICATION_TYPE":"U","NORAD_CAT_ID":54142,"ELEMENT_SET_NO":999,"REV_AT_EPOCH":16538,"BSTAR":0.0027876,"MEAN_MOTION_DOT":1.147e-5,"MEAN_MOTION_DDOT":0},{"OBJECT_NAME":"ONEWEB-0525","OBJECT_ID":"2022-138AG","EPOCH":"2026-03-03T16:48:23.383296","MEAN_MOTION":13.19725436,"ECCENTRICITY":0.0001647,"INCLINATION":87.924,"RA_OF_ASC_NODE":325.977,"ARG_OF_PERICENTER":88.631,"MEAN_ANOMALY":271.5012,"EPHEMERIS_TYPE":0,"CLASSIFICATION_TYPE":"U","NORAD_CAT_ID":54143,"ELEMENT_SET_NO":999,"REV_AT_EPOCH":16291,"BSTAR":-5.2958e-5,"MEAN_MOTION_DOT":-8.0e-8,"MEAN_MOTION_DDOT":0},{"OBJECT_NAME":"ONEWEB-0526","OBJECT_ID":"2022-138AH","EPOCH":"2026-03-03T17:36:08.515296","MEAN_MOTION":13.19723998,"ECCENTRICITY":0.0001775,"INCLINATION":87.9248,"RA_OF_ASC_NODE":325.9646,"ARG_OF_PERICENTER":82.8877,"MEAN_ANOMALY":277.2458,"EPHEMERIS_TYPE":0,"CLASSIFICATION_TYPE":"U","NORAD_CAT_ID":54144,"ELEMENT_SET_NO":999,"REV_AT_EPOCH":16289,"BSTAR":8.7511e-5,"MEAN_MOTION_DOT":4.8e-7,"MEAN_MOTION_DDOT":0},{"OBJECT_NAME":"ONEWEB-0529","OBJECT_ID":"2022-138AJ","EPOCH":"2026-03-03T17:40:42.309120","MEAN_MOTION":13.19726307,"ECCENTRICITY":0.0001689,"INCLINATION":87.9238,"RA_OF_ASC_NODE":325.9823,"ARG_OF_PERICENTER":86.8881,"MEAN_ANOMALY":273.2445,"EPHEMERIS_TYPE":0,"CLASSIFICATION_TYPE":"U","NORAD_CAT_ID":54145,"ELEMENT_SET_NO":999,"REV_AT_EPOCH":16291,"BSTAR":0.00024678,"MEAN_MOTION_DOT":1.12e-6,"MEAN_MOTION_DDOT":0},{"OBJECT_NAME":"ONEWEB-0531","OBJECT_ID":"2022-138AK","EPOCH":"2026-03-03T16:52:43.554432","MEAN_MOTION":13.20772663,"ECCENTRICITY":0.0002346,"INCLINATION":87.9184,"RA_OF_ASC_NODE":295.4966,"ARG_OF_PERICENTER":68.3551,"MEAN_ANOMALY":291.7832,"EPHEMERIS_TYPE":0,"CLASSIFICATION_TYPE":"U","NORAD_CAT_ID":54146,"ELEMENT_SET_NO":999,"REV_AT_EPOCH":16538,"BSTAR":-2.5618e-5,"MEAN_MOTION_DOT":3.0e-8,"MEAN_MOTION_DDOT":0},{"OBJECT_NAME":"ONEWEB-0535","OBJECT_ID":"2022-138AL","EPOCH":"2026-03-03T18:28:28.256736","MEAN_MOTION":13.19725811,"ECCENTRICITY":0.0001766,"INCLINATION":87.9248,"RA_OF_ASC_NODE":325.9518,"ARG_OF_PERICENTER":67.9476,"MEAN_ANOMALY":292.1844,"EPHEMERIS_TYPE":0,"CLASSIFICATION_TYPE":"U","NORAD_CAT_ID":54147,"ELEMENT_SET_NO":999,"REV_AT_EPOCH":16293,"BSTAR":6.9787e-5,"MEAN_MOTION_DOT":4.1e-7,"MEAN_MOTION_DDOT":0},{"OBJECT_NAME":"ONEWEB-0536","OBJECT_ID":"2022-138AM","EPOCH":"2026-03-03T16:34:32.795040","MEAN_MOTION":13.20772527,"ECCENTRICITY":0.0002487,"INCLINATION":87.9171,"RA_OF_ASC_NODE":295.5347,"ARG_OF_PERICENTER":69.3218,"MEAN_ANOMALY":290.8182,"EPHEMERIS_TYPE":0,"CLASSIFICATION_TYPE":"U","NORAD_CAT_ID":54148,"ELEMENT_SET_NO":999,"REV_AT_EPOCH":16537,"BSTAR":5.1178e-5,"MEAN_MOTION_DOT":3.4e-7,"MEAN_MOTION_DDOT":0},{"OBJECT_NAME":"ONEWEB-0527","OBJECT_ID":"2022-166A","EPOCH":"2026-03-03T13:46:55.528320","MEAN_MOTION":13.21825267,"ECCENTRICITY":0.0001678,"INCLINATION":87.9164,"RA_OF_ASC_NODE":265.0601,"ARG_OF_PERICENTER":91.1077,"MEAN_ANOMALY":269.0249,"EPHEMERIS_TYPE":0,"CLASSIFICATION_TYPE":"U","NORAD_CAT_ID":54642,"ELEMENT_SET_NO":999,"REV_AT_EPOCH":15758,"BSTAR":0.00016254,"MEAN_MOTION_DOT":8.0e-7,"MEAN_MOTION_DDOT":0},{"OBJECT_NAME":"ONEWEB-0528","OBJECT_ID":"2022-166B","EPOCH":"2026-03-03T12:07:23.421216","MEAN_MOTION":13.21826637,"ECCENTRICITY":0.00016347,"INCLINATION":87.9166,"RA_OF_ASC_NODE":265.0776,"ARG_OF_PERICENTER":92.6253,"MEAN_ANOMALY":267.5068,"EPHEMERIS_TYPE":0,"CLASSIFICATION_TYPE":"U","NORAD_CAT_ID":54643,"ELEMENT_SET_NO":999,"REV_AT_EPOCH":15758,"BSTAR":0.00013751952,"MEAN_MOTION_DOT":7.0e-7,"MEAN_MOTION_DDOT":0},{"OBJECT_NAME":"ONEWEB-0539","OBJECT_ID":"2022-166C","EPOCH":"2026-03-03T14:50:54.133440","MEAN_MOTION":13.21825622,"ECCENTRICITY":0.0001397,"INCLINATION":87.9169,"RA_OF_ASC_NODE":265.0204,"ARG_OF_PERICENTER":92.3072,"MEAN_ANOMALY":267.8222,"EPHEMERIS_TYPE":0,"CLASSIFICATION_TYPE":"U","NORAD_CAT_ID":54644,"ELEMENT_SET_NO":999,"REV_AT_EPOCH":15759,"BSTAR":-8.6801e-6,"MEAN_MOTION_DOT":9.0e-8,"MEAN_MOTION_DDOT":0},{"OBJECT_NAME":"ONEWEB-0540","OBJECT_ID":"2022-166D","EPOCH":"2026-03-03T15:00:33.601824","MEAN_MOTION":13.21827141,"ECCENTRICITY":0.0001479,"INCLINATION":87.9165,"RA_OF_ASC_NODE":265.0556,"ARG_OF_PERICENTER":87.1444,"MEAN_ANOMALY":272.9859,"EPHEMERIS_TYPE":0,"CLASSIFICATION_TYPE":"U","NORAD_CAT_ID":54645,"ELEMENT_SET_NO":999,"REV_AT_EPOCH":15758,"BSTAR":4.6771e-5,"MEAN_MOTION_DOT":3.2e-7,"MEAN_MOTION_DDOT":0},{"OBJECT_NAME":"ONEWEB-0542","OBJECT_ID":"2022-166E","EPOCH":"2026-03-03T15:05:05.786016","MEAN_MOTION":13.21828681,"ECCENTRICITY":0.0001236,"INCLINATION":87.9173,"RA_OF_ASC_NODE":265.0143,"ARG_OF_PERICENTER":86.9035,"MEAN_ANOMALY":273.2241,"EPHEMERIS_TYPE":0,"CLASSIFICATION_TYPE":"U","NORAD_CAT_ID":54646,"ELEMENT_SET_NO":999,"REV_AT_EPOCH":15759,"BSTAR":-0.00016041,"MEAN_MOTION_DOT":-5.3e-7,"MEAN_MOTION_DDOT":0},{"OBJECT_NAME":"ONEWEB-0545","OBJECT_ID":"2022-166F","EPOCH":"2026-03-03T12:26:21.137280","MEAN_MOTION":13.21825722,"ECCENTRICITY":0.0001143,"INCLINATION":87.9166,"RA_OF_ASC_NODE":265.0571,"ARG_OF_PERICENTER":79.3647,"MEAN_ANOMALY":280.7616,"EPHEMERIS_TYPE":0,"CLASSIFICATION_TYPE":"U","NORAD_CAT_ID":54647,"ELEMENT_SET_NO":999,"REV_AT_EPOCH":15754,"BSTAR":8.8822878e-5,"MEAN_MOTION_DOT":5.0e-7,"MEAN_MOTION_DDOT":0},{"OBJECT_NAME":"ONEWEB-0580","OBJECT_ID":"2022-166G","EPOCH":"2026-03-03T13:37:26.852160","MEAN_MOTION":13.21825247,"ECCENTRICITY":0.0001359,"INCLINATION":87.9165,"RA_OF_ASC_NODE":265.0464,"ARG_OF_PERICENTER":78.9473,"MEAN_ANOMALY":281.1814,"EPHEMERIS_TYPE":0,"CLASSIFICATION_TYPE":"U","NORAD_CAT_ID":54648,"ELEMENT_SET_NO":999,"REV_AT_EPOCH":15759,"BSTAR":5.843e-5,"MEAN_MOTION_DOT":3.7e-7,"MEAN_MOTION_DDOT":0},{"OBJECT_NAME":"ONEWEB-0582","OBJECT_ID":"2022-166H","EPOCH":"2026-03-03T14:39:03.240288","MEAN_MOTION":13.21825263,"ECCENTRICITY":0.0001188,"INCLINATION":87.9168,"RA_OF_ASC_NODE":265.0309,"ARG_OF_PERICENTER":81.0174,"MEAN_ANOMALY":279.1094,"EPHEMERIS_TYPE":0,"CLASSIFICATION_TYPE":"U","NORAD_CAT_ID":54649,"ELEMENT_SET_NO":999,"REV_AT_EPOCH":15757,"BSTAR":7.2274e-5,"MEAN_MOTION_DOT":4.3e-7,"MEAN_MOTION_DDOT":0},{"OBJECT_NAME":"ONEWEB-0583","OBJECT_ID":"2022-166J","EPOCH":"2026-03-03T14:55:37.853760","MEAN_MOTION":13.21826115,"ECCENTRICITY":0.0001474,"INCLINATION":87.9166,"RA_OF_ASC_NODE":265.0522,"ARG_OF_PERICENTER":91.5428,"MEAN_ANOMALY":268.5875,"EPHEMERIS_TYPE":0,"CLASSIFICATION_TYPE":"U","NORAD_CAT_ID":54650,"ELEMENT_SET_NO":999,"REV_AT_EPOCH":15758,"BSTAR":3.48e-6,"MEAN_MOTION_DOT":1.4e-7,"MEAN_MOTION_DDOT":0},{"OBJECT_NAME":"ONEWEB-0584","OBJECT_ID":"2022-166K","EPOCH":"2026-03-03T13:35:04.629120","MEAN_MOTION":13.21825608,"ECCENTRICITY":0.0001379,"INCLINATION":87.9165,"RA_OF_ASC_NODE":265.0507,"ARG_OF_PERICENTER":77.5825,"MEAN_ANOMALY":282.5463,"EPHEMERIS_TYPE":0,"CLASSIFICATION_TYPE":"U","NORAD_CAT_ID":54651,"ELEMENT_SET_NO":999,"REV_AT_EPOCH":15756,"BSTAR":0.00015349,"MEAN_MOTION_DOT":7.6e-7,"MEAN_MOTION_DDOT":0},{"OBJECT_NAME":"ONEWEB-0585","OBJECT_ID":"2022-166L","EPOCH":"2026-03-03T12:21:35.407296","MEAN_MOTION":13.21825476,"ECCENTRICITY":0.00017606,"INCLINATION":87.9165,"RA_OF_ASC_NODE":265.0454,"ARG_OF_PERICENTER":90.7979,"MEAN_ANOMALY":269.3357,"EPHEMERIS_TYPE":0,"CLASSIFICATION_TYPE":"U","NORAD_CAT_ID":54652,"ELEMENT_SET_NO":999,"REV_AT_EPOCH":15756,"BSTAR":-0.00052791144,"MEAN_MOTION_DOT":-2.05e-6,"MEAN_MOTION_DDOT":0},{"OBJECT_NAME":"ONEWEB-0586","OBJECT_ID":"2022-166M","EPOCH":"2026-03-03T14:29:34.557216","MEAN_MOTION":13.21824258,"ECCENTRICITY":0.0001388,"INCLINATION":87.9167,"RA_OF_ASC_NODE":265.0531,"ARG_OF_PERICENTER":89.7542,"MEAN_ANOMALY":270.3751,"EPHEMERIS_TYPE":0,"CLASSIFICATION_TYPE":"U","NORAD_CAT_ID":54653,"ELEMENT_SET_NO":999,"REV_AT_EPOCH":15757,"BSTAR":6.4738e-5,"MEAN_MOTION_DOT":4.0e-7,"MEAN_MOTION_DDOT":0},{"OBJECT_NAME":"ONEWEB-0587","OBJECT_ID":"2022-166N","EPOCH":"2026-03-03T14:43:46.551072","MEAN_MOTION":13.21827426,"ECCENTRICITY":0.0001932,"INCLINATION":87.9177,"RA_OF_ASC_NODE":265.0143,"ARG_OF_PERICENTER":95.5854,"MEAN_ANOMALY":264.55,"EPHEMERIS_TYPE":0,"CLASSIFICATION_TYPE":"U","NORAD_CAT_ID":54654,"ELEMENT_SET_NO":999,"REV_AT_EPOCH":15773,"BSTAR":-6.2527e-5,"MEAN_MOTION_DOT":-1.3e-7,"MEAN_MOTION_DDOT":0},{"OBJECT_NAME":"ONEWEB-0589","OBJECT_ID":"2022-166P","EPOCH":"2026-03-03T14:24:48.600864","MEAN_MOTION":13.21826058,"ECCENTRICITY":0.0001107,"INCLINATION":87.9163,"RA_OF_ASC_NODE":265.043,"ARG_OF_PERICENTER":58.1796,"MEAN_ANOMALY":301.9445,"EPHEMERIS_TYPE":0,"CLASSIFICATION_TYPE":"U","NORAD_CAT_ID":54655,"ELEMENT_SET_NO":999,"REV_AT_EPOCH":15759,"BSTAR":7.8008e-5,"MEAN_MOTION_DOT":4.5e-7,"MEAN_MOTION_DDOT":0},{"OBJECT_NAME":"ONEWEB-0590","OBJECT_ID":"2022-166Q","EPOCH":"2026-03-03T15:00:10.305792","MEAN_MOTION":13.21826886,"ECCENTRICITY":0.0001869,"INCLINATION":87.9174,"RA_OF_ASC_NODE":265.0175,"ARG_OF_PERICENTER":77.2,"MEAN_ANOMALY":282.9343,"EPHEMERIS_TYPE":0,"CLASSIFICATION_TYPE":"U","NORAD_CAT_ID":54656,"ELEMENT_SET_NO":999,"REV_AT_EPOCH":15758,"BSTAR":7.3682e-5,"MEAN_MOTION_DOT":4.3e-7,"MEAN_MOTION_DDOT":0},{"OBJECT_NAME":"ONEWEB-0591","OBJECT_ID":"2022-166R","EPOCH":"2026-03-03T13:27:56.623392","MEAN_MOTION":13.21823687,"ECCENTRICITY":0.0001625,"INCLINATION":87.9166,"RA_OF_ASC_NODE":265.052,"ARG_OF_PERICENTER":89.0136,"MEAN_ANOMALY":271.1184,"EPHEMERIS_TYPE":0,"CLASSIFICATION_TYPE":"U","NORAD_CAT_ID":54657,"ELEMENT_SET_NO":999,"REV_AT_EPOCH":15760,"BSTAR":-8.2774e-5,"MEAN_MOTION_DOT":-2.1e-7,"MEAN_MOTION_DDOT":0},{"OBJECT_NAME":"ONEWEB-0592","OBJECT_ID":"2022-166S","EPOCH":"2026-03-03T13:32:41.746848","MEAN_MOTION":13.21827182,"ECCENTRICITY":0.0001574,"INCLINATION":87.9174,"RA_OF_ASC_NODE":265.0214,"ARG_OF_PERICENTER":86.682,"MEAN_ANOMALY":273.4494,"EPHEMERIS_TYPE":0,"CLASSIFICATION_TYPE":"U","NORAD_CAT_ID":54658,"ELEMENT_SET_NO":999,"REV_AT_EPOCH":15748,"BSTAR":4.5944e-5,"MEAN_MOTION_DOT":3.2e-7,"MEAN_MOTION_DDOT":0}]
